ORBCOMM FM103           
1 40091U 14040F   24198.85173289  .00001414  00000+0  35033-3 0  9996
2 40091  47.0048 159.9403 0001636 204.4927 155.5881 14.56762946515187
ORBCOMM FM114           
1 41179U 15081A   24198.88228833  .00002077  00000+0  49606-3 0  9996
2 41179  47.0028  69.0277 0001838 247.3421 112.7270 14.56855405455556
ORBCOMM FM119           
1 41180U 15081B   24198.85617010  .00001361  00000+0  33865-3 0  9999
2 41180  47.0025 338.3701 0001934 288.4064  71.6611 14.56748848456808
ORBCOMM FM105           
1 41181U 15081C   24198.64160676  .00000606  00000+0  21915-3 0  9992
2 41181  47.0031 312.4613 0002626 256.4881 103.5707 14.44478476452229
ORBCOMM FM110           
1 41182U 15081D   24198.86013494  .00002130  00000+0  50803-3 0  9994
2 41182  47.0016  68.5412 0001375  63.4634 296.6392 14.56821214455425
ORBCOMM FM118           
1 41183U 15081E   24198.83785620  .00001651  00000+0  40215-3 0  9992
2 41183  47.0048  68.9701 0001632  59.0619 301.0426 14.56826721455524
ORBCOMM FM112           
1 41184U 15081F   24198.83299885  .00002110  00000+0  50446-3 0  9994
2 41184  46.9998 337.6813 0002340 270.4283  89.6334 14.56741026456746
ORBCOMM FM113           
1 41185U 15081G   24198.87886593  .00002080  00000+0  49780-3 0  9992
2 41185  47.0016 337.7434 0001912 279.3311  80.7357 14.56740301456735
